[{"Name":"Kirloskar Institute of Advanced Management Studies","street":"Yantrapur,Harihar","city":"","state":"Karnataka ","pincode":"577601","phone no":"08192-241269","website":" www.kiams.ac.in","Emailid":null,"cutOff":63,"isIIM":"FALSE"},
{"Name":"National School Of Business","street":"#33, 22nd Main, Phase-II,JP Nagar","city":"Bangalore","state":"Karnataka ","pincode":"560078","phone no":"080-30251440","website":" www.nsbindia.org","Emailid":null,"cutOff":62,"isIIM":"FALSE"},
{"Name":"T.A. Pai Management Institute (TAPMI)","street":"PB No. 9,Manipal","city":"","state":"Karnataka ","pincode":"576104","phone no":"0820-2701000","website":": www.tapmi.edu.in","Emailid":null,"cutOff":95,"isIIM":"FALSE"},
{"Name":"Adarsh Institute of Management and Information Technology","street":"#75, Devanathachar Street ,5th Main, Chamraj Pet","city":"Bangalore","state":"Karnataka ","pincode":"560018","phone no":"8792004290","website":"www.adarshaimit.com","Emailid":null,"cutOff":92,"isIIM":"FALSE"},
{"Name":"CMS Business School (Jain University)","street":"CMS Annex, 319, 17th Cross, 25th Main,JP Nagar 6th Phase","city":"","state":"Karnataka ","pincode":"560078","phone no":"080-43430400","website":" www.bschool.cms.ac.in","Emailid":null,"cutOff":97,"isIIM":"FALSE"},
{"Name":"Institute of Finance & International Management (IFIM)","street":"#8P & 9P, KIADB Industrial Area","city":"Bangalore","state":"Karnataka ","pincode":"5600100","phone no":"080-4143288","website":"www.ifimbschool.com","Emailid":null,"cutOff":61,"isIIM":"FALSE"},
{"Name":"Prin L.N. Welingkar Institute of Management Development & Research (Bangalore)","street":"102/103, G-19 Electronic City,Phase-1, Nr. Telephone Exc.,Hosur Road","city":"Bangalore","state":"Karnataka ","pincode":"5600100","phone no":"022-24198300","website":" www.welingkar.org","Emailid":null,"cutOff":70,"isIIM":"FALSE"},
{"Name":"ISBR Business School","street":"#107, Electronic City,Phase - I, Nr. Infosys","city":"Bangalore","state":"Karnataka ","pincode":"5600100","phone no":"080-40819500","website":" www.isbr.in","Emailid":null,"cutOff":65,"isIIM":"FALSE"},
{"Name":"International School Of Management Excellence","street":"Survey No. 88, Chembuna Hall,Nr. Dommasandra Circle, Sarjapur Road","city":"Bangalore","state":"Karnataka ","pincode":"562125","phone no":"888061234","website":"www.isme.in","Emailid":null,"cutOff":78,"isIIM":"FALSE"},
{"Name":"GIBS Business School","street":"#363, Krishna Arcade, Opp. Chaitanya Techno School,Hulimavu, Bannerghatta Road, Pai Layout","city":"Bangalore","state":"Karnataka ","pincode":"560076","phone no":"8050300060","website":" www.gibsbschool.com","Emailid":null,"cutOff":87,"isIIM":"FALSE"},
{"Name":"Myra School of Business","street":"Nr. Infosys, Opp. PowerGrid,Yelwal","city":"Myore","state":"Karnataka ","pincode":"571130","phone no":"0821-24044511","website":"www.myra.ac.in","Emailid":null,"cutOff":70,"isIIM":"FALSE"},
{"Name":"Indian Institute of Science","street":"","city":"Bangalore","state":"Karnataka ","pincode":"560012","phone no":"080-2293244","website":"www.iisc.ernet.in.","Emailid":null,"cutOff":76,"isIIM":"FALSE"},
{"Name":"National Institute of Technology, Karnataka, Surathkal","street":"PO. Srinivasnagar, SurathKal,Chikkahagade Cross, Chandapura-Anekal Main Road","city":"Mangalore","state":"Karnataka ","pincode":"575025","phone no":"0824-247400","website":" www.nitk.ac.in","Emailid":null,"cutOff":94,"isIIM":"FALSE"},
{"Name":"Alliance University","street":"Anekal","city":"Bangalore","state":"karnataka","pincode":"562106","phone no":"080-3093800","website":"www.alliance.edu.in","Emailid":null,"cutOff":83,"isIIM":"FALSE"},
{"Name":" (AIMS Institutes)","street":"1st Cross, 1st Stage","city":"Bangalore","state":"karnataka","pincode":"560058","phone no":"028 391531","website":" www.theaims.ac.in","Emailid":null,"cutOff":61,"isIIM":"FALSE"},
{"Name":"School of Petroleum Management, PDPU","street":"Raisan Village","city":"Gandhinagar","state":"Gujarat","pincode":"382007","phone no":"079-23275101","website":"www.spm.pdpu.ac.in","Emailid":null,"cutOff":83,"isIIM":"FALSE"},
{"Name":"Entrepreneurship Development Institute of India.","street":"Nr. Village Bhat, Via Ahmedabad Airport & Indira Bridge,P.O. Bhat","city":"Gandhinagar","state":"Gujarat","pincode":"382428","phone no":"079-23969157","website":"www.ediindia.ac.in","Emailid":null,"cutOff":86,"isIIM":"FALSE"},
{"Name":"Institute of Rural Management, Anand","street":"PO Box No.60,Anand","city":"Anand","state":"Gujarat","pincode":"388001","phone no":"02692-221657","website":"www.irma.ac.in","Emailid":null,"cutOff":62,"isIIM":"FALSE"},
{"Name":"Gujarat National Law University, Gandhinagar","street":"Attalika Avenue, Knowledge Corridor","city":"Gandhinagar","state":"Gujarat","pincode":"382007","phone no":"079-23276611","website":"www.gnlu.ac.in","Emailid":null,"cutOff":69,"isIIM":"FALSE"},
{"Name":"Institute of Management, Nirma University","street":"SG Highway","city":"Ahmedabad","state":"Gujarat","pincode":"382481","phone no":"02717-241900","website":"www.nirmauni.ac.in","Emailid":null,"cutOff":94,"isIIM":"FALSE"},
{"Name":"MICA","street":"Sarkhej-Sanand H'way, Telav-Ghuma Rd.,Shela Village","city":"Ahmedabad","state":"Gujarat","pincode":"380058","phone no":"02717-308250","website":"www.mica.ac.in","Emailid":null,"cutOff":71,"isIIM":"FALSE"},
{"Name":"Amrut Mody School of Management","street":"Dr. Vikram Sarabhai Marg,Opp. IIMA, Navrangpura","city":"Ahmedabad","state":"Gujarat","pincode":"380009","phone no":"079-26300048","website":"www.pgim.ahduni.edu.in","Emailid":null,"cutOff":91,"isIIM":"FALSE"},
{"Name":"The Business School, Jammu","street":"Jammu Tawi","city":"Jammu","state":"Jammu & Kashmir","pincode":"180006","phone no":"","website":"www.jammuuniversity.in","Emailid":null,"cutOff":64,"isIIM":"FALSE"},
{"Name":"University of Hyderabad (School of Management Studies)","street":"Prof. C.R.Rao Road,Gachibowli","city":"Hyderabad","state":"Andhra Pradesh","pincode":"500046","phone no":"040-23011091","website":"www.uohyd.ernet.in","Emailid":null,"cutOff":80,"isIIM":"FALSE"},
{"Name":"Institute of Management Technology, Hyderabad","street":"Survey No.38, Cherlaguda Village,Shamshabad Mandal, R.R. ","city":"Hyderabad","state":"Andhra Pradesh","pincode":"501218","phone no":"040-30461661","website":"www.imthyderabad.edu.in","Emailid":null,"cutOff":71,"isIIM":"FALSE"},
{"Name":"GITAM School of International Business","street":"Rushikonda,Visakhapatnam","city":"Visakhapatnam","state":"Andhra Pradesh","pincode":"530045","phone no":"0891-2840413","website":"www.gsib.org","Emailid":null,"cutOff":62,"isIIM":"FALSE"},
{"Name":"Development Management Institute","street":"DNS-RICM Campus,Shastrinagar","city":"Patna","state":"Bihar","pincode":"800023","phone no":"0612-3212762","website":"www.dmi.brlps.in","Emailid":null,"cutOff":96,"isIIM":"FALSE"},
{"Name":"Chandragupt Institute of Management Patna (CIMP)","street":"Nr. Mithapur Bus stand,CIMP Nagar, Mithapur Institutional Area","city":"Patna","state":"Bihar","pincode":"800001","phone no":"","website":"www.cimp.ac.in","Emailid":null,"cutOff":68,"isIIM":"FALSE"},
{"Name":"LM Thapar School of Management","street":"Adjacent to Focal Point, Dera Bassi","city":"Mohali","state":"Punjab","pincode":"140507","phone no":"176-239450","website":"www.imtsm.thapar.edu","Emailid":null,"cutOff":92,"isIIM":"FALSE"},
{"Name":"University Business School – Ludhiana","street":"Punjab University Regional Centre,Civil Lines","city":"Ludhiana","state":"Punjab","pincode":"140507","phone no":"0161-2443830","website":"www.ubsl.puchd.ac.in","Emailid":null,"cutOff":91,"isIIM":"FALSE"},
{"Name":"Hyderabad School of Business Management","street":"Rudraram, Patancheru (M),Dist. Medak","city":"Telangana","state":"Telangana","pincode":"502329","phone no":"08455-220058","website":"www.gitam.edu","Emailid":null,"cutOff":98,"isIIM":"FALSE"},
{"Name":"Vignana Jyothi Institute of Management","street":"Bachupally,Via. Kukatpally","city":"Hyderabad","state":"Telangana","pincode":"500090","phone no":"040-23044951","website":"www.vjim.edu.in","Emailid":null,"cutOff":64,"isIIM":"FALSE"},
{"Name":"Siva Sivani Institute of Management","street":"NH-7, Kompally","city":"Secunderabad","state":"Telangana","pincode":"500100","phone no":"040-27165450","website":"www.ssim.ac.in","Emailid":null,"cutOff":86,"isIIM":"FALSE"},
{"Name":"Institute of Public Enterprise","street":"Survey No. 1266,Shameerpet","city":"Hyderabad","state":"Andhra Pradesh","pincode":"500101","phone no":"040-23490900","website":"www.ipeindia.org","Emailid":null,"cutOff":90,"isIIM":"FALSE"},
{"Name":"Development Management Institute","street":"DNS-RICM Campus,Shastrinagar","city":"Patna","state":"Bihar","pincode":"800023","phone no":"0612-3212762","website":"www.dmi.brlps.in","Emailid":null,"cutOff":80,"isIIM":"FALSE"},
{"Name":"Chandragupt Institute of Management Patna (CIMP)","street":"Nr. Mithapur Bus stand,CIMP Nagar, Mithapur Institutional Area","city":"Patna","state":"Bihar","pincode":"800001","phone no":"","website":"www.cimp.ac.in","Emailid":null,"cutOff":80,"isIIM":"FALSE"},
{"Name":"Goa Institute of Management","street":"Sanquelim Campus, Sattari","city":"panji","state":"Goa","pincode":"403505","phone no":"0832-236670","website":"www.gim.ac.in","Emailid":null,"cutOff":96,"isIIM":"FALSE"},
{"Name":"The Business School, Jammu","street":"University of Jammu,Jammu Tawi","city":"Jammu Tawi","state":"Jammu & Kashmir","pincode":"180006","phone no":"","website":"www.jammuuniversity.in","Emailid":null,"cutOff":75,"isIIM":"FALSE"},
{"Name":"Rajagiri Business School","street":"Rajagiri Valley,P.O. Kakkanad","city":"Kochi","state":"Kerala","pincode":"682039","phone no":"0484-2426554","website":"www.rajagiribusinessschool.com","Emailid":null,"cutOff":76,"isIIM":"FALSE"},
{"Name":"Fortune Institute Of International Business","street":"Plot No. 5, Rao Tula Ram Marg,Opp. Army R&R Hospital, Vasant Vihar","city":"Delhi","state":"New Delhi,","pincode":"110057","phone no":"011-47285018","website":"www.fiib.edu.in","Emailid":null,"cutOff":91,"isIIM":"FALSE"},
{"Name":"Asia-Pacific Institute of Management","street":"3&4, Institutional Area, Jasola,Opp. Sarita Vihar","city":"New Delhi","state":"New Delhi","pincode":"110025","phone no":"011-42094800","website":"www.asiapacific.edu","Emailid":null,"cutOff":94,"isIIM":"FALSE"},
{"Name":"New Delhi Institute of Management","street":"50(B&C),Tughlakabad Institutional Area","city":"New Delhi","state":"New Delhi","pincode":"110062","phone no":"011-40111000","website":"www.ndimdelhi.org","Emailid":null,"cutOff":75,"isIIM":"FALSE"},
{"Name":"International Management Institute","street":"B-10, Qutab Institutional Area","city":"New Delhi","state":"New Delhi","pincode":"110016","phone no":"011-47194100","website":"www.imi.edu","Emailid":null,"cutOff":93,"isIIM":"FALSE"},
{"Name":"Apeejay School of Management","street":"Sector – 8,Dwarka Institutional Area","city":"New Delhi","state":"New Delhi","pincode":"110077","phone no":"011-25363979","website":"www.apeejay.edu","Emailid":null,"cutOff":60,"isIIM":"FALSE"},
{"Name":"BITS Pilani","street":"Vidhya Vihar,BITS","city":"Pilani","state":"Rajasthan","pincode":"333031","phone no":"01596-242205","website":"www.bitsadmission.com","Emailid":null,"cutOff":77,"isIIM":"FALSE"},
{"Name":"CCS National Institute of Agricultural Marketing","street":"Bambala,Kota Road","city":"Jaipur","state":"Rajasthan","pincode":"302033","phone no":"0141-2770027","website":"www.ccsniam.gov.in","Emailid":null,"cutOff":92,"isIIM":"FALSE"},
{"Name":"Institute Of Agri Business Management","street":"S.K. Rajasthan Agricultural University","city":"Bikaner","state":"Rajasthan","pincode":"334006","phone no":"0151-2252981","website":"www.iabmbikaner.org","Emailid":null,"cutOff":92,"isIIM":"FALSE"},
{"Name":"Institute Of Management Technology (IMT)","street":"Hapur Road,Raj Nagar","city":"Ghaziabad","state":"Uttar Pradesh","pincode":"201001","phone no":"0120-300220","website":" www.imt.edu","Emailid":null,"cutOff":67,"isIIM":"FALSE"},
{"Name":"Birla Institute of Management Technology","street":"Plot No. 5,Raj Nagar","city":"Greater Noida","state":"Uttar Pradesh","pincode":"201306","phone no":"0120-2323001","website":"www.bimtech.ac.in","Emailid":null,"cutOff":69,"isIIM":"FALSE"},
{"Name":"Shri Ram Murti Smarak International Business School","street":"UGF, Krishna Complex, Chandganj Garden Rd,Nr.Vivekanand Hospital, Aliganj","city":"Lucknow","state":"Uttar Pradesh","pincode":"226004","phone no":"05143-278414","website":"www.ibs.srms.ac.in","Emailid":null,"cutOff":65,"isIIM":"FALSE"},
{"Name":"Galgotias University","street":"Plot No.2, Sector 17-A,Yamuna Express-way","city":"Greater Noida","state":"Uttar Pradesh","pincode":"203201","phone no":"0120-4806806","website":"www.galgotiasuniversity.edu.in","Emailid":null,"cutOff":73,"isIIM":"FALSE"},
{"Name":"Master School of Management","street":"DS-1, Pocket-D, Hapur Road,Lohia Nagar","city":"Meerut","state":"Uttar Pradesh","pincode":"250005","phone no":"0121-2408868","website":"www.msmindia.org","Emailid":null,"cutOff":83,"isIIM":"FALSE"},
{"Name":"Indian Institute of Information Technology (IIIT-A) - Allahabad","street":"Deoghat,Jhalwa","city":"Allahabad","state":"Uttar Pradesh","pincode":"211012","phone no":"532-292-2000","website":"www.iiita.ac.in","Emailid":null,"cutOff":83,"isIIM":"FALSE"},
{"Name":"J.R.E Group of Institutions","street":"Plot No. 5,6,7,8,Knowledge Park – IV","city":"Greater Noida","state":"Uttar Pradesh","pincode":"201308","phone no":"0120-4712764","website":"www.jre.edu.in","Emailid":null,"cutOff":71,"isIIM":"FALSE"},
{"Name":"Institute of Management Studies (IMS), Ghaziabad","street":"Lal Quan,GT Road","city":"Ghaziabad","state":"Uttar Pradesh","pincode":"201009","phone no":"0120-4170600","website":"www.ims-ghaziabad.ac.in","Emailid":null,"cutOff":98,"isIIM":"FALSE"},
{"Name":"Institute of Management Studies, Noida","street":"A-8B, IMS Campus,Sector-62","city":"Noida","state":"Uttar Pradesh","pincode":"201303","phone no":"0120-479880","website":"www.imsnoida.in","Emailid":null,"cutOff":95,"isIIM":"FALSE"},
{"Name":"Motilal Nehru National Institute of Technology","street":"Teliarganj","city":"Allahabad","state":"Uttar Pradesh","pincode":"211004","phone no":"0532-2271011","website":"www.mnnit.ac.in","Emailid":null,"cutOff":82,"isIIM":"FALSE"},
{"Name":"Indian Institute Of Finance","street":"45-A, Knowledge Park-III,Greater Nodia","city":"Noida","state":"Uttar Pradesh","pincode":"201306","phone no":"0120-2323683-7","website":"www.iif.edu","Emailid":null,"cutOff":60,"isIIM":"FALSE"},
{"Name":"Shiv Nadar University","street":"NH91, Tehsil Dadri,Gautam Buddha Nagar","city":"Uttar Pradesh","state":"Uttar Pradesh","pincode":"201314","phone no":"0120-381900","website":"www.snu.edu.in","Emailid":null,"cutOff":85,"isIIM":"FALSE"},
{"Name":"Rajiv Gandhi Institute of Petroleum Technology (RGIPT)","street":"Dept. of Mgmt. Studies, 2nd Floor, G+3 Block,DIDB Bhawan, Plot No. 2, Sector-73","city":"Noida","state":"Uttar Pradesh","pincode":"201301","phone no":"0120-2472632","website":"www.rgipt.ac.in","Emailid":null,"cutOff":69,"isIIM":"FALSE"},
{"Name":"Accurate Institute of Management & Technology","street":"16, Knowledge Park-II","city":"Greater Noida","state":"Uttar Pradesh","pincode":"201306","phone no":"0120-6670618","website":" www.iilmgsm.ac.in","Emailid":null,"cutOff":95,"isIIM":"FALSE"},
{"Name":"University Of Lucknow","street":"Department Of Business Administration,University Of Lucknow","city":"Lucknow","state":"Uttar Pradesh","pincode":226024,"phone no":"0522-2740246","website":"www.lkouniv.ac.in","Emailid":null,"cutOff":86,"isIIM":"FALSE"},
{"Name":"NTPC School of Business","street":"C/o. NTPC Ltd., Power Management Institute,Plot No. 5-14, Sector – 16A","city":"Noida","state":"Uttar Pradesh","pincode":"201301","phone no":"0120-2416816","website":"www.nsb.ac.in","Emailid":null,"cutOff":98,"isIIM":"FALSE"},
{"Name":"Institute of Advanced Management & Research","street":"9th Km Stone,Delhi-Meerut Road, Duhai","city":"Ghaziabad","state":"Uttar Pradesh","pincode":"201206","phone no":"9811171842","website":"www.iamr.edu.in","Emailid":null,"cutOff":82,"isIIM":"FALSE"},
{"Name":"Institute Of Management Technology","street":"35 KMS Milestone,Nagpur-Kotal Road","city":"Nagpur","state":"Maharashtra","pincode":"441502","phone no":"0712-2805000","website":"www.imtnagpur.ac.in","Emailid":null,"cutOff":87,"isIIM":"FALSE"},
{"Name":"Institute For Technology And Management","street":"Plot No. 25/26, Sector 4,Kharghar (E), Institutional Area","city":"Navi Mumbai","state":"Maharashtra","pincode":"410210","phone no":"022-61294024","website":"www.itm.edu","Emailid":null,"cutOff":71,"isIIM":"FALSE"},
{"Name":"Flame School of Business","street":"Gat No. 1270, Taluka Mulshi,Village Vadzai","city":"Dist. Pune","state":"Maharashtra","pincode":"410210","phone no":"020-67906230","website":"www.flame.edu.in","Emailid":null,"cutOff":73,"isIIM":"FALSE"},
{"Name":"Balaji Institute of Modern Management (BIMM)","street":"SVY No. 55/2-7, Tathawade, Nr. Wakad,Off Mumbai Bangalore ","city":"By-pass Pune","state":"Maharashtra","pincode":"411033","phone no":"020-66741239","website":"www.bimmpune.com","Emailid":null,"cutOff":79,"isIIM":"FALSE"},
{"Name":"Balaji Institute of Management & Human Resource Development (BIMHRD)","street":"S.No55/2-7,Opp. Mumbai-B'glore Bypass","city":"Pune","state":"Maharashtra","pincode":"411033","phone no":"020-66741482","website":"www.bimhrdpune.com","Emailid":null,"cutOff":92,"isIIM":"FALSE"},
{"Name":"Prin L.N. Welingkar Institute of Management Development & Research (Mumbai)","street":"L.Napoo road, Nr. RA Podar College,Matunga (Central Railway)","city":"Mumbai","state":"Maharashtra","pincode":"400019","phone no":"022-24198300","website":"www.welingkar.org","Emailid":null,"cutOff":86,"isIIM":"FALSE"},
{"Name":"National Institute of Industrial Engineering (NITIE)","street":"Vihar Lake Road","city":"Mumbai","state":"Maharashtra","pincode":"400087","phone no":"022-28573371","website":"www.nitie.edu","Emailid":null,"cutOff":77,"isIIM":"FALSE"},
{"Name":"Shailesh J Mehta School of Management, IIT Bombay","street":"Powai","city":"Mumbai","state":"Maharashtra","pincode":"400076","phone no":"022-2576-8781","website":"www.som.iitb.ac.in","Emailid":null,"cutOff":78,"isIIM":"FALSE"},
{"Name":"National Institute Of Bank Management","street":"NIBM Post Office,Kondhwe Khurd","city":"Pune","state":"Maharashtra","pincode":"411048","phone no":"020-26716000","website":"www.nibmindia.org","Emailid":null,"cutOff":61,"isIIM":"FALSE"},
{"Name":"Balaji Institute of International Business (BIIB)","street":"S. No. 55/2-7, Tathawade,Nr. Wakad","city":"Pune","state":"Maharashtra","pincode":"411033","phone no":"020-3063137","website":"www.biibpune.com","Emailid":null,"cutOff":92,"isIIM":"FALSE"},
{"Name":"Balaji Institute of Telecom & Management (BITM)","street":"55/2-7, Tathawade,Nr. Wakad","city":"Pune","state":"Maharashtra","pincode":"411033","phone no":"020-3063127","website":"www.bitmpune.com","Emailid":null,"cutOff":69,"isIIM":"FALSE"},
{"Name":"S P Jain Institute of Management & Research","street":"Bhavan's Campus, Munshi Nagar,Dadabhai Road, Andheri (W)","city":"Mumbai","state":"Maharashtra","pincode":"400058","phone no":"022-2623039","website":"www.spjimr.org","Emailid":null,"cutOff":72,"isIIM":"FALSE"},
{"Name":"Indian Institute of Cost and Management studies & Research","street":"32/2/2/4, Bavdhan Kurd,Pirangut Road","city":"Pune","state":"Maharashtra","pincode":"411021","phone no":"020-22917000","website":"www.indsearch.org","Emailid":null,"cutOff":60,"isIIM":"FALSE"},
{"Name":"K J Somaiya Institute of Management Studies & Research","street":"Vidyanagar,Vidyavihar (E )","city":"Mumbai","state":"Maharashtra","pincode":"400077","phone no":"022-67283000","website":"www.somaiya.edu/simsr","Emailid":null,"cutOff":69,"isIIM":"FALSE"},
{"Name":"National Insurance Academy","street":"25, Balewadi,Baner Road, NIA PO","city":"Pune","state":"Maharashtra","pincode":"411045","phone no":"020-27204000","website":"www.niapune.com","Emailid":null,"cutOff":61,"isIIM":"FALSE"},
{"Name":"National Power Training Institute","street":"Sector - 33, NPTI Complex","city":"Faidabad","state":"Haryana","pincode":"121003","phone no":"0129-2270949","website":"www.npti.in","Emailid":null,"cutOff":71,"isIIM":"FALSE"},
{"Name":"Management Development Institute (MDI)","street":"PO Box No.60, Sukhrali,Mehrauli-Gurgaon Road","city":"Gurgaon","state":"Haryana","pincode":"122007","phone no":"0124-4560555","website":"www.mdi.ac.in","Emailid":null,"cutOff":91,"isIIM":"FALSE"},
{"Name":"BML Munjal University","street":"67th KM Stone,NH-8","city":"Dist. Gurgaon","state":"Haryana","pincode":"122413","phone no":"42575073/74","website":"www.bml.edu.in","Emailid":null,"cutOff":64,"isIIM":"FALSE"},
{"Name":"Vivekanand Institute of Professional Studies, Technical Campus","street":"Delhi School of Business,Vips-TC, AU Block","city":"Outer Ring-Road, Pitampura","state":"Delhi","pincode":"110088","phone no":"011-27343401","website":"www.dsb.edu.in","Emailid":null,"cutOff":74,"isIIM":"FALSE"},
{"Name":"Faculty of Management Studies","street":"University of Delhi","city":"","state":"Delhi","pincode":"110007","phone no":"011-2766787","website":"www.fms.edu","Emailid":null,"cutOff":91,"isIIM":"FALSE"},
{"Name":"Lal Bahadur Shastri Institute of Management","street":"Plot No-11/7, Sector – 11,Dwarka","city":"New Delhi","state":"Delhi","pincode":"110075","phone no":"011-25307700","website":"www.lbsim.ac.in","Emailid":null,"cutOff":98,"isIIM":"FALSE"},
{"Name":"Fore School of Management","street":"Adhitam Kendra,Qutub Institutional Area","city":"New Delhi","state":"Delhi","pincode":"110016","phone no":"011-41242405","website":"www.fsm.ac.in","Emailid":null,"cutOff":68,"isIIM":"FALSE"},
{"Name":"University of Delhi(Dept. of Commerce, Financial Studies & Business Economics)","street":"Department of Commerce,Delhi School of Economics","city":"Delhi","state":"Delhi","pincode":"110007","phone no":"011-27667891","website":"www.commercedu.com","Emailid":null,"cutOff":67,"isIIM":"FALSE"},
{"Name":"Department of Business Administration, Tezpur","street":"Tezpur University","city":"Napaam","state":"Assam","pincode":"784028","phone no":"03712-275000","website":"www.tezu.ernet.in","Emailid":null,"cutOff":84,"isIIM":"FALSE"},
{"Name":"Department of Business Administration","street":"Jawaharlal Nehru School of Management Studies,Assam University","city":"Silchar","state":"Assam","pincode":"788011","phone no":"03842-270806","website":"www.aus.ac.in","Emailid":null,"cutOff":79,"isIIM":"FALSE"},
{"Name":"International Management Institute (Alipore)","street":"2/4C, Judges Court Road,Alipore","city":"Kolkata","state":"West Bengal","pincode":"700027","phone no":"033-66529616","website":"www.imi-k.edu.in","Emailid":null,"cutOff":93,"isIIM":"FALSE"},
{"Name":"Army Institute of Management, Kolkata","street":"Judges Court Road,Opp. Alipore Tele-phone Exchange, Alipore","city":"Kolkata","state":"Bengal","pincode":"700027","phone no":"033-24794494","website":"www.aim.ac.in","Emailid":null,"cutOff":90,"isIIM":"FALSE"},
{"Name":"Management Development Institute (MDI) Murshidabad","street":"Village:Kulori, PO.Uttarramona,P.S-Raghunathganj","city":"(Dist.)Murshidabad","state":"West Bengal","pincode":"74223","phone no":"03483-201568","website":" www.mdim.ac.in","Emailid":null,"cutOff":61,"isIIM":"FALSE"},
{"Name":"Instutute of Engineering and Management","street":"Saltlake Electronics Complex,Sector - v, Saltlake","city":"Kolkata","state":"West Bengal","pincode":"700091","phone no":"033-23572969","website":"www.iem.edu.in","Emailid":null,"cutOff":96,"isIIM":"FALSE"},
{"Name":"Indian Institute of Social Welfare & Business Management (IISWBM)","street":"Management House,College Square","city":"Kolkata","state":"West Bengal","pincode":"700073","phone no":"033-22413756","website":"www.iiswbm.edu","Emailid":null,"cutOff":68,"isIIM":"FALSE"},
{"Name":"Eastern Institute of Integrated Learning in Management (EIILM)","street":"6, Waterloo Street,2nd Floor","city":"Kolkata","state":"West Bengal","pincode":"700069","phone no":"033-22100911","website":"www.eiilm.co.in","Emailid":null,"cutOff":97,"isIIM":"FALSE"},
{"Name":"National Institute of Technology - Durgapur","street":"Durgapur","city":"","state":"West Bengal","pincode":713209,"phone no":"0343-2546397","website":"www.nitdgp.ac.in","Emailid":null,"cutOff":95,"isIIM":"FALSE"},
{"Name":"National Institute of Technology","street":"Tanjore Main Road,National Highway 67","city":"Tiruchirappalli","state":"Tamil Nadu","pincode":"620015","phone no":"0431-2503000","website":"www.nitt.edu","Emailid":null,"cutOff":97,"isIIM":"FALSE"},
{"Name":"Institute of Financial Management & Research","street":"24, Kothari Road,Nungambakkam","city":"Chennai","state":"Tamil Nadu","pincode":"600034","phone no":"","website":"www.ifmr.ac.in","Emailid":null,"cutOff":69,"isIIM":"FALSE"},
{"Name":"Great Lakes Institute of Management","street":"Dr. Bala V. Balachandar Campus, East Coast Road,Manamai Village, Thirukazhukundram Taluk","city":"Kancheepuram District","state":"Tamil Nadu","pincode":"603102","phone no":"044-30809000","website":"www.greatlakes.edu.in","Emailid":null,"cutOff":92,"isIIM":"FALSE"},
{"Name":"Bharathidasan Institute of Management (BIM)","street":"PO Box No.12, MHD Campus,Bhel Complex","city":"Tiruchirappalli","state":"Tamil Nadu","pincode":"620014","phone no":"0431-2520502","website":"www.bim.edu","Emailid":null,"cutOff":86,"isIIM":"FALSE"},
{"Name":"Amrita School of Business, Amrita Vishwa Vidyapeetham","street":"Amritanagar P.O.,Ettimadai","city":"Coimbatore","state":"Tamil Nadu","pincode":"641112","phone no":"0422-2652122","website":"www.amrita.edu/asb","Emailid":null,"cutOff":95,"isIIM":"FALSE"},
{"Name":"Loyala Instute Of Business Administration","street":"Loyala College Campus Sterling Road,Nungambakkam","city":"Chennai","state":"Tamil Nadu","pincode":"600034","phone no":"044-28177100","website":"www.liba.edu","Emailid":null,"cutOff":82,"isIIM":"FALSE"},
{"Name":"Xavier Institute of Management (XIMB), Xavier University","street":"Xavier Square","city":"Bhubaneswar","state":"Odisha","pincode":"751013","phone no":"0674-6647777","website":" www.ximb.ac.in","Emailid":null,"cutOff":81,"isIIM":"FALSE"},
{"Name":"KIIT School of Management, KIIT University","street":"Campus -7, Krishna campus,At PO-KIIT","city":"Bhubaneswar","state":"Odisha","pincode":"751024","phone no":"0674-2725713","website":"www.ksom.ac.in","Emailid":null,"cutOff":75,"isIIM":"FALSE"},
{"Name":"Asian School of Business Management","street":"#8, Sai Anandam Complex,Patia-Square","city":"Bhubaneswar","state":"Odisha","pincode":"751024","phone no":"0674-2744881","website":"www.asbm.ac.in","Emailid":null,"cutOff":66,"isIIM":"FALSE"},
{"Name":"Birla Institute of Management Technology (BIMTECH)","street":"IDCO Plot No. 2,Gothapatna","city":"Bhubaneswar","state":"Odisha","pincode":"751003","phone no":"0674-7103001","website":"www.bimtechbbsr.ac.in","Emailid":null,"cutOff":60,"isIIM":"FALSE"},
{"Name":"Indian Institute of Information Technology & Management, Gwalior","street":"Morena Link Road","city":"Gwalior","state":"Madhya Pradesh","pincode":"474015","phone no":"0751-2449801","website":"www.iiitm.ac.in","Emailid":null,"cutOff":72,"isIIM":"FALSE"},
{"Name":"Indian Institute of Forest Management","street":"Nehru Nagar","city":"Bhopal","state":"Madhya Pradesh","pincode":"462003","phone no":"0755-2768331","website":"www.iifm.ac.in/pgdfm","Emailid":null,"cutOff":85,"isIIM":"FALSE"},
{"Name":"Xavier Institute of Social Service","street":"Dr. Camil, Bulcke Path, Po. Box No. 7,Purulia Road","city":"Ranchi","state":"Jharkhand","pincode":"834001","phone no":"0651-220087","website":"www.xiss.ac.in","Emailid":null,"cutOff":62,"isIIM":"FALSE"},
{"Name":"Chitkara Business School","street":"SCO 160-161,Sector 9-C","city":"","state":"Chandigarh","pincode":"160009","phone no":"0172-4090900","website":"www.chitkara.edu.in","Emailid":null,"cutOff":78,"isIIM":"FALSE"},
{"Name":"University Business School, Chandigarh","street":"Arts Block-3,Panjab University","city":"","state":"Chandigarh","pincode":"160014","phone no":"0172-2534709","website":"www.puchd.ac.in.","Emailid":null,"cutOff":79,"isIIM":"FALSE"},
{"Name":"Indian Institute of Management Calcutta","street":"Diamond Harbour Road,Joka","city":"Kolkata","state":" West Bengal","pincode":"700104","phone no":"033-2467-8300","website":"www.iimcal.ac.in","Emailid":null,"cutOff":88,"isIIM":"TRUE"},
{"Name":"Indian Institute of Management Ahmedabad","street":"Vastrapur","city":"Ahmedabad","state":" Gujarat","pincode":"380009","phone no":"079 6632 3456","website":"www.iimahd.ernet.in","Emailid":null,"cutOff":96,"isIIM":"TRUE"},
{"Name":"Indian Institute of Management Bangalore","street":"Bannerghatta Road","city":"Bangalore","state":" Karnataka","pincode":"560 076","phone no":"080 2658 2450","website":"www.iimb.ernet.in","Emailid":null,"cutOff":84,"isIIM":"TRUE"},
{"Name":"Indian Institute of Management Lucknow","street":"LucknowPrabandh Nagar, IIM Road","city":"Lucknow","state":" Uttar Pradesh","pincode":"226 013","phone no":"91-522-2734101","website":"www.iiml.ac.in","Emailid":deanaa@iiml.ac.in,"cutOff":93,"isIIM":"TRUE"},
{"Name":"Indian Institute of Management Kozhikode","street":"IIMK Campus P. O.","city":"Kozhikode","state":" Kerala","pincode":"673 570","phone no":"91-495-2809100","website":"www.iimk.ac.in","Emailid":admissions@iimk.ac.in,"cutOff":97,"isIIM":"TRUE"},
{"Name":"Indian Institute of Management Indore","street":"Prabandh Shikhar, Rau-Pithampur Road","city":"Indore","state":" Madhya Pradesh","pincode":453556,"phone no":"91-731-2439666","website":"www.iimidr.ac.in","Emailid":null,"cutOff":61,"isIIM":"TRUE"},
{"Name":"Indian Institute of Management Shillong","street":"Mayurbhanj Complex,Nongthymmai.","city":"Shillong","state":" Meghalaya","pincode":"793014","phone no":" 0364 - 2308000","website":"www.iimshillong.in","Emailid": admissions@iimshillong.in,"cutOff":68,"isIIM":"TRUE"},
{"Name":"Indian Institute of Management Rohtak","street":"M. D. University Campus","city":"Rohtak","state":"Haryana","pincode":"124001","phone no":"91-1262-218900","website":"www.iimrohtak.ac.in","Emailid": pgpadmission@iimrohtak.ac.in,"cutOff":73,"isIIM":"TRUE"},
{"Name":"Indian Institute of Management Ranchi","street":"Suchana Bhawan,5th Floor, Audrey House Campus,Meur’s Road","city":"Ranchi","state":" Jharkhand","pincode":"834 008","phone no":" 0651 2280113","website":"www.iimranchi.ac.in","Emailid": chair.placement@iimranchi.ac.in,"cutOff":67,"isIIM":"TRUE"},
{"Name":"Indian Institute of Management Raipur","street":"GEC Campus, Sejbahar, Raipur","city":"Raipur","state":" Chhattisgarh","pincode":"492 015","phone no":"91-771-2474702","website":"www.iimraipur.ac.in","Emailid":chairmanadmission@iimraipur.ac.in,"cutOff":98,"isIIM":"TRUE"},
{"Name":"Indian Institute of Management Trichy","street":"45, Nehru street,Ramaniyam Siddharth Building 1st Floor,Industrial Estate North Phase","city":"Trichy","state":" Tamil Nadu","pincode":"600 032","phone no":"91-44-222 555 65","website":"www.iimtrichy.ac.in","Emailid":null,"cutOff":76,"isIIM":"TRUE"},
{"Name":"Indian Institute of Management Udaipur","street":"Mohanlal Sukhadia University Campus,","city":"Udaipur","state":" Rajasthan","pincode":"313 001","phone no":"91 294 2477106","website":"www.iimu.ac.in","Emailid": info@iimu.ac.in ,"cutOff":98,"isIIM":"TRUE"},
{"Name":"Indian Institute of Management Kashipur","street":"Bazpur Road, Kashipur,Udham Singh Nagar","city":"Kashipur","state":"Uttarakhand","pincode":"244713","phone no":"91-5947-262174","website":"www.iimkashipur.ac.in","Emailid":admission@iimkashipur.ac.in,"cutOff":95,"isIIM":"TRUE"},
{"Name":"Indian Institute of Management Nagpur","street":"103, S Ambazari Rd, Gopal Nagar,Gayatri Nagar, Pratap Nagar","city":"Nagpur","state":" Maharashtra","pincode":"440022","phone no":"0712-2805000","website":"www.iimnagpur.ac.in","Emailid":null,"cutOff":96,"isIIM":"TRUE"},
{"Name":"Indian Institute of Management BodhGaya","street":"","city":"Bodh Gaya","state":" Bihar","pincode":null,"phone no":"","website":"www.iimbg.ac.in","Emailid":null,"cutOff":65,"isIIM":"TRUE"},
{"Name":"Indian Institute of Management Visakhapatnam","street":"Andhra Bank School of Business Building,Andhra University Campus","city":"Visakhapatnam","state":" Andhra Pradesh","pincode":"530 003","phone no":"91 891 - 282 4444","website":"www.iimv.ac.in","Emailid": info@iimv.ac.in,"cutOff":91,"isIIM":"TRUE"},
{"Name":"Indian Institute of Management Amritsar","street":"Punjab Institute of Technology Building,Polytechnic Road,PO: Chheharta,G.T. Road","city":"Amritsar","state":" Punjab","pincode":"143105","phone no":"183- 2254538","website":"www.iimamritsar.ac.in","Emailid": pawan.kumar@iimamritsar.ac.in,"cutOff":70,"isIIM":"TRUE"},
{"Name":"Indian Institute of Management, Sambalpur","street":"C/o Silicon Institute of Technology ,Silicon West, P.O. Sason","city":"Sambalpur","state":" Odisha","pincode":"768200","phone no":"","website":"www.iimsambalpur.ac.in","Emailid":null,"cutOff":93,"isIIM":"TRUE"},
{"Name":"Indian Institute of Management, Sirmaur","street":"Himachal Institute of Technology, Near Dental College, Rampur Ghat Road, Paonta Sahib, Distt Sirmaur","city":"Sirmaur","state":"Himachal Pradesh","pincode":"173025","phone no":"9453833395","website":"www.iiml.ac.in","Emailid":ajaygarg@iiml.ac.in,"cutOff":75,"isIIM":"TRUE"}]